start=new Date('2023-01-02T00:00:00.000Z').valueOf();
sats=[{"LAUNCH_DATE":"2021-11-13","TLE_LINE2":"2 49445  53.2170  40.8062 0002919  21.4459 338.6655 15.08813038 63172","TIME_SYSTEM":"UTC","INCLINATION":"53.2170","OBJECT_NAME":"STARLINK-3122","RA_OF_ASC_NODE":"40.8062","TLE_LINE1":"1 49445U 21104AP  23001.51877843  .00022260  00000-0  14133-2 0  9999","DECAY_DATE":null,"SITE":"AFETR","BSTAR":"0.00141330000000","MEAN_MOTION_DDOT":"0.0000000000000","EPOCH":"2023-01-01T12:27:02.456352","ECCENTRICITY":"0.00029190","OBJECT_ID":"2021-104AP","REV_AT_EPOCH":"6317","COUNTRY_CODE":"US","MEAN_ANOMALY":"338.6655","OBJECT_TYPE":"PAYLOAD","GP_ID":"221932860","ARG_OF_PERICENTER":"21.4459","MEAN_MOTION":"15.08813038","APOAPSIS":"541.847","FILE":"3728759","RCS_SIZE":"LARGE","REF_FRAME":"TEME","MEAN_ELEMENT_THEORY":"SGP4","MEAN_MOTION_DOT":"0.00022260","ELEMENT_SET_NO":"999","CLASSIFICATION_TYPE":"U","NORAD_CAT_ID":"49445","CENTER_NAME":"EARTH","SEMIMAJOR_AXIS":"6917.963","EPHEMERIS_TYPE":"0","PERIAPSIS":"537.808","PERIOD":"95.439"},{"RCS_SIZE":"LARGE","REF_FRAME":"TEME","FILE":"3728952","APOAPSIS":"541.785","MEAN_MOTION":"15.08818739","ARG_OF_PERICENTER":"25.7286","SEMIMAJOR_AXIS":"6917.945","PERIOD":"95.439","EPHEMERIS_TYPE":"0","PERIAPSIS":"537.836","ELEMENT_SET_NO":"999","MEAN_MOTION_DOT":"-0.00005997","MEAN_ELEMENT_THEORY":"SGP4","CENTER_NAME":"EARTH","NORAD_CAT_ID":"49446","CLASSIFICATION_TYPE":"U","TIME_SYSTEM":"UTC","RA_OF_ASC_NODE":"29.6927","OBJECT_NAME":"STARLINK-3099","INCLINATION":"53.2175","LAUNCH_DATE":"2021-11-13","TLE_LINE2":"2 49446  53.2175  29.6927 0002854  25.7286 334.3848 15.08818739 63356","REV_AT_EPOCH":"6335","OBJECT_ID":"2021-104AQ","ECCENTRICITY":"0.00028540","OBJECT_TYPE":"PAYLOAD","GP_ID":"221990971","MEAN_ANOMALY":"334.3848","COUNTRY_CODE":"US","TLE_LINE1":"1 49446U 21104AQ  23001.76625780 -.00005997  00000-0 -35918-3 0  9993","DECAY_DATE":null,"SITE":"AFETR","BSTAR":"-0.00035918000000","EPOCH":"2023-01-01T18:23:24.673920","MEAN_MOTION_DDOT":"0.0000000000000"},{"REV_AT_EPOCH":"6433","ECCENTRICITY":"0.00029810","OBJECT_ID":"2021-104AR","MEAN_ANOMALY":"329.2106","OBJECT_TYPE":"PAYLOAD","GP_ID":"221996038","COUNTRY_CODE":"US","TLE_LINE1":"1 49447U 21104AR  23002.10757689  .00002068  00000-0  14810-3 0  9999","BSTAR":"0.00014810000000","DECAY_DATE":null,"SITE":"AFETR","MEAN_MOTION_DDOT":"0.0000000000000","EPOCH":"2023-01-02T02:34:54.643296","TIME_SYSTEM":"UTC","OBJECT_NAME":"STARLINK-3115","RA_OF_ASC_NODE":"38.1523","INCLINATION":"53.2172","LAUNCH_DATE":"2021-11-13","TLE_LINE2":"2 49447  53.2172  38.1523 0002981  30.9061 329.2106 15.08826257 64334","SEMIMAJOR_AXIS":"6917.922","PERIOD":"95.438","PERIAPSIS":"537.725","EPHEMERIS_TYPE":"0","ELEMENT_SET_NO":"999","MEAN_ELEMENT_THEORY":"SGP4","MEAN_MOTION_DOT":"0.00002068","NORAD_CAT_ID":"49447","CENTER_NAME":"EARTH","CLASSIFICATION_TYPE":"U","RCS_SIZE":"LARGE","REF_FRAME":"TEME","APOAPSIS":"541.850","FILE":"3729073","ARG_OF_PERICENTER":"30.9061","MEAN_MOTION":"15.08826257"},{"PERIAPSIS":"537.950","EPHEMERIS_TYPE":"0","PERIOD":"95.438","SEMIMAJOR_AXIS":"6917.903","CLASSIFICATION_TYPE":"U","NORAD_CAT_ID":"49448","CENTER_NAME":"EARTH","MEAN_ELEMENT_THEORY":"SGP4","MEAN_MOTION_DOT":"-0.00002100","ELEMENT_SET_NO":"999","REF_FRAME":"TEME","RCS_SIZE":"LARGE","ARG_OF_PERICENTER":"24.4166","MEAN_MOTION":"15.08832750","APOAPSIS":"541.586","FILE":"3729073","COUNTRY_CODE":"US","MEAN_ANOMALY":"335.6950","GP_ID":"221996236","OBJECT_TYPE":"PAYLOAD","ECCENTRICITY":"0.00026280","OBJECT_ID":"2021-104AS","REV_AT_EPOCH":"6433","MEAN_MOTION_DDOT":"0.0000000000000","EPOCH":"2023-01-02T02:50:48.742944","DECAY_DATE":null,"TLE_LINE1":"1 49448U 21104AS  23002.11861971 -.00002100  00000-0 -11384-3 0  9993","SITE":"AFETR","BSTAR":"-0.00011384000000","INCLINATION":"53.2179","OBJECT_NAME":"STARLINK-3097","RA_OF_ASC_NODE":"38.1082","TIME_SYSTEM":"UTC","TLE_LINE2":"2 49448  53.2179  38.1082 0002628  24.4166 335.6950 15.08832750 64337","LAUNCH_DATE":"2021-11-13"},{"RCS_SIZE":"LARGE","REF_FRAME":"TEME","APOAPSIS":"541.838","FILE":"3728952","ARG_OF_PERICENTER":"20.7633","MEAN_MOTION":"15.08826066","SEMIMAJOR_AXIS":"6917.923","PERIOD":"95.438","PERIAPSIS":"537.738","EPHEMERIS_TYPE":"0","ELEMENT_SET_NO":"999","MEAN_ELEMENT_THEORY":"SGP4","MEAN_MOTION_DOT":"0.00016683","CENTER_NAME":"EARTH","NORAD_CAT_ID":"49449","CLASSIFICATION_TYPE":"U","TIME_SYSTEM":"UTC","OBJECT_NAME":"STARLINK-3137","RA_OF_ASC_NODE":"39.3665","INCLINATION":"53.2164","LAUNCH_DATE":"2021-11-13","TLE_LINE2":"2 49449  53.2164  39.3665 0002963  20.7633 339.3479 15.08826066 63229","REV_AT_EPOCH":"6322","ECCENTRICITY":"0.00029630","OBJECT_ID":"2021-104AT","MEAN_ANOMALY":"339.3479","GP_ID":"221990221","OBJECT_TYPE":"PAYLOAD","COUNTRY_CODE":"US","TLE_LINE1":"1 49449U 21104AT  23001.83894354  .00016683  00000-0  10642-2 0  9997","DECAY_DATE":null,"SITE":"AFETR","BSTAR":"0.00106420000000","MEAN_MOTION_DDOT":"0.0000000000000","EPOCH":"2023-01-01T20:08:04.721856"},{"LAUNCH_DATE":"2021-11-13","TLE_LINE2":"2 49450  53.2192  40.8098 0002659  27.9418 332.1716 15.08825179 63433","TIME_SYSTEM":"UTC","INCLINATION":"53.2192","OBJECT_NAME":"STARLINK-3127","RA_OF_ASC_NODE":"40.8098","TLE_LINE1":"1 49450U 21104AU  23001.51511174 -.00003583  00000-0 -20720-3 0  9996","DECAY_DATE":null,"BSTAR":"-0.00020720000000","SITE":"AFETR","MEAN_MOTION_DDOT":"0.0000000000000","EPOCH":"2023-01-01T12:21:45.654336","ECCENTRICITY":"0.00026590","OBJECT_ID":"2021-104AU","REV_AT_EPOCH":"6343","COUNTRY_CODE":"US","MEAN_ANOMALY":"332.1716","OBJECT_TYPE":"PAYLOAD","GP_ID":"221932610","ARG_OF_PERICENTER":"27.9418","MEAN_MOTION":"15.08825179","APOAPSIS":"541.630","FILE":"3728759","RCS_SIZE":"LARGE","REF_FRAME":"TEME","MEAN_ELEMENT_THEORY":"SGP4","MEAN_MOTION_DOT":"-0.00003583","ELEMENT_SET_NO":"999","CLASSIFICATION_TYPE":"U","NORAD_CAT_ID":"49450","CENTER_NAME":"EARTH","SEMIMAJOR_AXIS":"6917.926","EPHEMERIS_TYPE":"0","PERIAPSIS":"537.951","PERIOD":"95.438"},{"MEAN_MOTION_DOT":"0.00003256","MEAN_ELEMENT_THEORY":"SGP4","ELEMENT_SET_NO":"999","CLASSIFICATION_TYPE":"U","CENTER_NAME":"EARTH","NORAD_CAT_ID":"49451","SEMIMAJOR_AXIS":"6917.954","PERIAPSIS":"538.543","EPHEMERIS_TYPE":"0","PERIOD":"95.439","MEAN_MOTION":"15.08815875","ARG_OF_PERICENTER":"43.5427","FILE":"3729073","APOAPSIS":"541.095","RCS_SIZE":"LARGE","REF_FRAME":"TEME","TLE_LINE1":"1 49451U 21104AV  23002.10022452  .00003256  00000-0  22272-3 0  9998","SITE":"AFETR","DECAY_DATE":null,"BSTAR":"0.00022272000000","EPOCH":"2023-01-02T02:24:19.398528","MEAN_MOTION_DDOT":"0.0000000000000","OBJECT_ID":"2021-104AV","ECCENTRICITY":"0.00018440","REV_AT_EPOCH":"6434","COUNTRY_CODE":"US","OBJECT_TYPE":"PAYLOAD","GP_ID":"221996037","MEAN_ANOMALY":"316.5710","LAUNCH_DATE":"2021-11-13","TLE_LINE2":"2 49451  53.2151  38.1978 0001844  43.5427 316.5710 15.08815875 64348","TIME_SYSTEM":"UTC","INCLINATION":"53.2151","RA_OF_ASC_NODE":"38.1978","OBJECT_NAME":"STARLINK-3125"},{"MEAN_MOTION":"15.08841406","ARG_OF_PERICENTER":"25.1690","FILE":"3728952","APOAPSIS":"541.884","RCS_SIZE":"LARGE","REF_FRAME":"TEME","MEAN_MOTION_DOT":"-0.00001875","MEAN_ELEMENT_THEORY":"SGP4","ELEMENT_SET_NO":"999","CLASSIFICATION_TYPE":"U","NORAD_CAT_ID":"49452","CENTER_NAME":"EARTH","SEMIMAJOR_AXIS":"6917.876","EPHEMERIS_TYPE":"0","PERIAPSIS":"537.598","PERIOD":"95.437","LAUNCH_DATE":"2021-11-13","TLE_LINE2":"2 49452  53.2180  39.4463 0003098  25.1690 334.9452 15.08841406 63227","TIME_SYSTEM":"UTC","INCLINATION":"53.2180","RA_OF_ASC_NODE":"39.4463","OBJECT_NAME":"STARLINK-3150","TLE_LINE1":"1 49452U 21104AW  23001.82149441 -.00001875  00000-0 -99704-4 0  9997","DECAY_DATE":null,"BSTAR":"-0.00009970400000","SITE":"AFETR","EPOCH":"2023-01-01T19:42:57.117024","MEAN_MOTION_DDOT":"0.0000000000000","OBJECT_ID":"2021-104AW","ECCENTRICITY":"0.00030980","REV_AT_EPOCH":"6322","COUNTRY_CODE":"US","OBJECT_TYPE":"PAYLOAD","GP_ID":"221989971","MEAN_ANOMALY":"334.9452"},{"INCLINATION":"53.2156","RA_OF_ASC_NODE":"39.4197","OBJECT_NAME":"STARLINK-3129","TIME_SYSTEM":"UTC","TLE_LINE2":"2 49453  53.2156  39.4197 0002040  33.3271 326.7849 15.08823419 63220","LAUNCH_DATE":"2021-11-13","COUNTRY_CODE":"US","GP_ID":"221989722","OBJECT_TYPE":"PAYLOAD","MEAN_ANOMALY":"326.7849","OBJECT_ID":"2021-104AX","ECCENTRICITY":"0.00020400","REV_AT_EPOCH":"6322","EPOCH":"2023-01-01T19:52:10.918560","MEAN_MOTION_DDOT":"0.0000000000000","TLE_LINE1":"1 49453U 21104AX  23001.82790415  .00015294  00000-0  97737-3 0  9992","BSTAR":"0.00097737000000","DECAY_DATE":null,"SITE":"AFETR","REF_FRAME":"TEME","RCS_SIZE":"LARGE","MEAN_MOTION":"15.08823419","ARG_OF_PERICENTER":"33.3271","FILE":"3728952","APOAPSIS":"541.207","PERIAPSIS":"538.385","EPHEMERIS_TYPE":"0","PERIOD":"95.439","SEMIMAJOR_AXIS":"6917.931","CLASSIFICATION_TYPE":"U","NORAD_CAT_ID":"49453","CENTER_NAME":"EARTH","MEAN_MOTION_DOT":"0.00015294","MEAN_ELEMENT_THEORY":"SGP4","ELEMENT_SET_NO":"999"},{"TLE_LINE2":"2 49454  53.2176  39.4001 0002830  26.3970 333.7166 15.08830316 63226","LAUNCH_DATE":"2021-11-13","RA_OF_ASC_NODE":"39.4001","OBJECT_NAME":"STARLINK-3160","INCLINATION":"53.2176","TIME_SYSTEM":"UTC","EPOCH":"2023-01-01T19:57:29.916000","MEAN_MOTION_DDOT":"0.0000000000000","TLE_LINE1":"1 49454U 21104AY  23001.83159625 -.00001401  00000-0 -69900-4 0  9995","DECAY_DATE":null,"SITE":"AFETR","BSTAR":"-0.00006990000000","OBJECT_TYPE":"PAYLOAD","GP_ID":"221990972","MEAN_ANOMALY":"333.7166","COUNTRY_CODE":"US","REV_AT_EPOCH":"6322","OBJECT_ID":"2021-104AY","ECCENTRICITY":"0.00028300","FILE":"3728952","APOAPSIS":"541.733","MEAN_MOTION":"15.08830316","ARG_OF_PERICENTER":"26.3970","REF_FRAME":"TEME","RCS_SIZE":"LARGE","CENTER_NAME":"EARTH","NORAD_CAT_ID":"49454","CLASSIFICATION_TYPE":"U","ELEMENT_SET_NO":"999","MEAN_MOTION_DOT":"-0.00001401","MEAN_ELEMENT_THEORY":"SGP4","PERIOD":"95.438","PERIAPSIS":"537.817","EPHEMERIS_TYPE":"0","SEMIMAJOR_AXIS":"6917.910"}];
